[{"OBJECT_NAME":"ONEWEB-0206","OBJECT_ID":"2021-031T","EPOCH":"2025-11-10T10:11:08.513376","MEAN_MOTION":13.14500308,"ECCENTRICITY":0.0001962,"INCLINATION":87.9007,"RA_OF_ASC_NODE":333.2653,"ARG_OF_PERICENTER":101.1818,"MEAN_ANOMALY":258.9532,"EPHEMERIS_TYPE":0,"CLASSIFICATION_TYPE":"U","NORAD_CAT_ID":48227,"ELEMENT_SET_NO":999,"REV_AT_EPOCH":21948,"BSTAR":-4.8172811e-5,"MEAN_MOTION_DOT":-5.0e-8,"MEAN_MOTION_DDOT":0},{"OBJECT_NAME":"ONEWEB-0182","OBJECT_ID":"2021-031U","EPOCH":"2025-11-10T19:12:20.265120","MEAN_MOTION":13.14504547,"ECCENTRICITY":0.00015656,"INCLINATION":87.8982,"RA_OF_ASC_NODE":333.2251,"ARG_OF_PERICENTER":92.0513,"MEAN_ANOMALY":268.0796,"EPHEMERIS_TYPE":0,"CLASSIFICATION_TYPE":"U","NORAD_CAT_ID":48228,"ELEMENT_SET_NO":999,"REV_AT_EPOCH":21974,"BSTAR":0.0003687764,"MEAN_MOTION_DOT":1.5e-6,"MEAN_MOTION_DDOT":0},{"OBJECT_NAME":"ONEWEB-0186","OBJECT_ID":"2021-031V","EPOCH":"2025-11-10T19:28:19.995456","MEAN_MOTION":13.14503687,"ECCENTRICITY":0.00018295,"INCLINATION":87.9003,"RA_OF_ASC_NODE":333.1944,"ARG_OF_PERICENTER":89.4036,"MEAN_ANOMALY":270.7303,"EPHEMERIS_TYPE":0,"CLASSIFICATION_TYPE":"U","NORAD_CAT_ID":48229,"ELEMENT_SET_NO":999,"REV_AT_EPOCH":21969,"BSTAR":0.00062022664,"MEAN_MOTION_DOT":2.43e-6,"MEAN_MOTION_DDOT":0},{"OBJECT_NAME":"ONEWEB-0181","OBJECT_ID":"2021-031W","EPOCH":"2025-11-10T18:56:20.090688","MEAN_MOTION":13.14504899,"ECCENTRICITY":0.00019736,"INCLINATION":87.8984,"RA_OF_ASC_NODE":333.2585,"ARG_OF_PERICENTER":89.6545,"MEAN_ANOMALY":270.4811,"EPHEMERIS_TYPE":0,"CLASSIFICATION_TYPE":"U","NORAD_CAT_ID":48230,"ELEMENT_SET_NO":999,"REV_AT_EPOCH":21954,"BSTAR":-0.00025004018,"MEAN_MOTION_DOT":-8.0e-7,"MEAN_MOTION_DDOT":0},{"OBJECT_NAME":"ONEWEB-0188","OBJECT_ID":"2021-031X","EPOCH":"2025-11-10T18:01:33.507264","MEAN_MOTION":13.14501866,"ECCENTRICITY":0.00017991,"INCLINATION":87.8992,"RA_OF_ASC_NODE":333.262,"ARG_OF_PERICENTER":92.0173,"MEAN_ANOMALY":268.1163,"EPHEMERIS_TYPE":0,"CLASSIFICATION_TYPE":"U","NORAD_CAT_ID":48231,"ELEMENT_SET_NO":999,"REV_AT_EPOCH":21944,"BSTAR":0.00018833057,"MEAN_MOTION_DOT":8.3e-7,"MEAN_MOTION_DDOT":0},{"OBJECT_NAME":"ONEWEB-0220","OBJECT_ID":"2021-031Y","EPOCH":"2025-11-10T11:40:12.482976","MEAN_MOTION":13.14502945,"ECCENTRICITY":0.00017229,"INCLINATION":87.8994,"RA_OF_ASC_NODE":333.2581,"ARG_OF_PERICENTER":83.6898,"MEAN_ANOMALY":276.4427,"EPHEMERIS_TYPE":0,"CLASSIFICATION_TYPE":"U","NORAD_CAT_ID":48232,"ELEMENT_SET_NO":999,"REV_AT_EPOCH":21967,"BSTAR":0.00013556827,"MEAN_MOTION_DOT":6.3e-7,"MEAN_MOTION_DDOT":0},{"OBJECT_NAME":"ONEWEB-0165","OBJECT_ID":"2021-031Z","EPOCH":"2025-11-10T19:39:43.981056","MEAN_MOTION":13.14503398,"ECCENTRICITY":0.00018883,"INCLINATION":87.8984,"RA_OF_ASC_NODE":333.2237,"ARG_OF_PERICENTER":87.5866,"MEAN_ANOMALY":272.548,"EPHEMERIS_TYPE":0,"CLASSIFICATION_TYPE":"U","NORAD_CAT_ID":48233,"ELEMENT_SET_NO":999,"REV_AT_EPOCH":21967,"BSTAR":8.3956676e-5,"MEAN_MOTION_DOT":4.4e-7,"MEAN_MOTION_DDOT":0},{"OBJECT_NAME":"ONEWEB-0199","OBJECT_ID":"2021-031AA","EPOCH":"2025-11-10T19:16:55.007616","MEAN_MOTION":13.14502492,"ECCENTRICITY":0.00018166,"INCLINATION":87.8993,"RA_OF_ASC_NODE":333.1986,"ARG_OF_PERICENTER":97.9336,"MEAN_ANOMALY":262.1999,"EPHEMERIS_TYPE":0,"CLASSIFICATION_TYPE":"U","NORAD_CAT_ID":48234,"ELEMENT_SET_NO":999,"REV_AT_EPOCH":21957,"BSTAR":0.00039000944,"MEAN_MOTION_DOT":1.57e-6,"MEAN_MOTION_DDOT":0},{"OBJECT_NAME":"ONEWEB-0203","OBJECT_ID":"2021-031AB","EPOCH":"2025-11-10T19:03:11.087712","MEAN_MOTION":13.14502844,"ECCENTRICITY":0.00021438,"INCLINATION":87.8991,"RA_OF_ASC_NODE":333.2016,"ARG_OF_PERICENTER":95.3352,"MEAN_ANOMALY":264.8022,"EPHEMERIS_TYPE":0,"CLASSIFICATION_TYPE":"U","NORAD_CAT_ID":48235,"ELEMENT_SET_NO":999,"REV_AT_EPOCH":21958,"BSTAR":-0.00049195215,"MEAN_MOTION_DOT":-1.7e-6,"MEAN_MOTION_DDOT":0},{"OBJECT_NAME":"ONEWEB-0197","OBJECT_ID":"2021-031AC","EPOCH":"2025-11-10T18:26:28.155552","MEAN_MOTION":13.14502029,"ECCENTRICITY":0.00014642,"INCLINATION":87.8994,"RA_OF_ASC_NODE":333.2048,"ARG_OF_PERICENTER":90.9491,"MEAN_ANOMALY":269.1807,"EPHEMERIS_TYPE":0,"CLASSIFICATION_TYPE":"U","NORAD_CAT_ID":48236,"ELEMENT_SET_NO":999,"REV_AT_EPOCH":21949,"BSTAR":-0.00028171445,"MEAN_MOTION_DOT":-9.2e-7,"MEAN_MOTION_DDOT":0},{"OBJECT_NAME":"ONEWEB-0194","OBJECT_ID":"2021-031AD","EPOCH":"2025-11-10T17:56:58.287840","MEAN_MOTION":13.14504207,"ECCENTRICITY":0.00019526,"INCLINATION":87.9,"RA_OF_ASC_NODE":333.2258,"ARG_OF_PERICENTER":100.3295,"MEAN_ANOMALY":259.8055,"EPHEMERIS_TYPE":0,"CLASSIFICATION_TYPE":"U","NORAD_CAT_ID":48237,"ELEMENT_SET_NO":999,"REV_AT_EPOCH":21966,"BSTAR":0.00024360518,"MEAN_MOTION_DOT":1.03e-6,"MEAN_MOTION_DDOT":0},{"OBJECT_NAME":"ONEWEB-0193","OBJECT_ID":"2021-031AE","EPOCH":"2025-11-10T11:01:23.329056","MEAN_MOTION":13.14501428,"ECCENTRICITY":0.00019132,"INCLINATION":87.8986,"RA_OF_ASC_NODE":333.2775,"ARG_OF_PERICENTER":107.9974,"MEAN_ANOMALY":252.1365,"EPHEMERIS_TYPE":0,"CLASSIFICATION_TYPE":"U","NORAD_CAT_ID":48238,"ELEMENT_SET_NO":999,"REV_AT_EPOCH":21957,"BSTAR":-0.0007096173,"MEAN_MOTION_DOT":-2.5e-6,"MEAN_MOTION_DDOT":0},{"OBJECT_NAME":"ONEWEB-0191","OBJECT_ID":"2021-031AF","EPOCH":"2025-11-10T11:17:21.871392","MEAN_MOTION":13.14501303,"ECCENTRICITY":0.00017701,"INCLINATION":87.8998,"RA_OF_ASC_NODE":333.2626,"ARG_OF_PERICENTER":93.5017,"MEAN_ANOMALY":266.6315,"EPHEMERIS_TYPE":0,"CLASSIFICATION_TYPE":"U","NORAD_CAT_ID":48239,"ELEMENT_SET_NO":999,"REV_AT_EPOCH":21943,"BSTAR":-0.00078713936,"MEAN_MOTION_DOT":-2.79e-6,"MEAN_MOTION_DDOT":0},{"OBJECT_NAME":"ONEWEB-0195","OBJECT_ID":"2021-031AG","EPOCH":"2025-11-10T18:02:42.286848","MEAN_MOTION":13.1450375,"ECCENTRICITY":0.00021391,"INCLINATION":87.9003,"RA_OF_ASC_NODE":333.2031,"ARG_OF_PERICENTER":84.7749,"MEAN_ANOMALY":275.3625,"EPHEMERIS_TYPE":0,"CLASSIFICATION_TYPE":"U","NORAD_CAT_ID":48240,"ELEMENT_SET_NO":999,"REV_AT_EPOCH":21945,"BSTAR":-8.5674098e-5,"MEAN_MOTION_DOT":-1.9e-7,"MEAN_MOTION_DDOT":0},{"OBJECT_NAME":"ONEWEB-0201","OBJECT_ID":"2021-031AH","EPOCH":"2025-11-10T19:35:21.449472","MEAN_MOTION":13.14504619,"ECCENTRICITY":0.0001735,"INCLINATION":87.8989,"RA_OF_ASC_NODE":333.235,"ARG_OF_PERICENTER":84.3389,"MEAN_ANOMALY":275.7938,"EPHEMERIS_TYPE":0,"CLASSIFICATION_TYPE":"U","NORAD_CAT_ID":48241,"ELEMENT_SET_NO":999,"REV_AT_EPOCH":21969,"BSTAR":0.00037331292,"MEAN_MOTION_DOT":1.51e-6,"MEAN_MOTION_DDOT":0},{"OBJECT_NAME":"ONEWEB-0207","OBJECT_ID":"2021-031AJ","EPOCH":"2025-11-10T19:06:36.592704","MEAN_MOTION":13.14504702,"ECCENTRICITY":0.00016032,"INCLINATION":87.8991,"RA_OF_ASC_NODE":333.1969,"ARG_OF_PERICENTER":88.9192,"MEAN_ANOMALY":271.2121,"EPHEMERIS_TYPE":0,"CLASSIFICATION_TYPE":"U","NORAD_CAT_ID":48242,"ELEMENT_SET_NO":999,"REV_AT_EPOCH":21960,"BSTAR":0.00024849141,"MEAN_MOTION_DOT":1.05e-6,"MEAN_MOTION_DDOT":0}]
