ONEWEB-0206             
1 48227U 21031T   25314.42440409 -.00000005  00000+0 -48173-4 0  9995
2 48227  87.9007 333.2653 0001962 101.1818 258.9532 13.14500308219482
ONEWEB-0182             
1 48228U 21031U   25314.80023455  .00000150  00000+0  36878-3 0  9993
2 48228  87.8982 333.2251 0001565  92.0513 268.0796 13.14504547219749
ONEWEB-0186             
1 48229U 21031V   25314.81134254  .00000243  00000+0  62023-3 0  9999
2 48229  87.9003 333.1944 0001829  89.4036 270.7303 13.14503687219698
ONEWEB-0181             
1 48230U 21031W   25314.78912142 -.00000080  00000+0 -25004-3 0  9996
2 48230  87.8984 333.2585 0001973  89.6545 270.4811 13.14504899219547
ONEWEB-0188             
1 48231U 21031X   25314.75108226  .00000083  00000+0  18833-3 0  9997
2 48231  87.8992 333.2620 0001799  92.0173 268.1163 13.14501866219442
ONEWEB-0220             
1 48232U 21031Y   25314.48625559  .00000063  00000+0  13557-3 0  9997
2 48232  87.8994 333.2581 0001722  83.6898 276.4427 13.14502945219676
ONEWEB-0165             
1 48233U 21031Z   25314.81925904  .00000044  00000+0  83957-4 0  9993
2 48233  87.8984 333.2237 0001888  87.5866 272.5480 13.14503398219674
ONEWEB-0199             
1 48234U 21031AA  25314.80341444  .00000157  00000+0  39001-3 0  9999
2 48234  87.8993 333.1986 0001816  97.9336 262.1999 13.14502492219576
ONEWEB-0203             
1 48235U 21031AB  25314.79387833 -.00000170  00000+0 -49195-3 0  9992
2 48235  87.8991 333.2016 0002143  95.3352 264.8022 13.14502844219582
ONEWEB-0197             
1 48236U 21031AC  25314.76838143 -.00000092  00000+0 -28171-3 0  9999
2 48236  87.8994 333.2048 0001464  90.9491 269.1807 13.14502029219495
ONEWEB-0194             
1 48237U 21031AD  25314.74789685  .00000103  00000+0  24361-3 0  9992
2 48237  87.9000 333.2258 0001952 100.3295 259.8055 13.14504207219668
ONEWEB-0193             
1 48238U 21031AE  25314.45929779 -.00000250  00000+0 -70962-3 0  9994
2 48238  87.8986 333.2775 0001913 107.9974 252.1365 13.14501428219571
ONEWEB-0191             
1 48239U 21031AF  25314.47039203 -.00000279  00000+0 -78714-3 0  9995
2 48239  87.8998 333.2626 0001770  93.5017 266.6315 13.14501303219431
ONEWEB-0195             
1 48240U 21031AG  25314.75187832 -.00000019  00000+0 -85674-4 0  9996
2 48240  87.9003 333.2031 0002139  84.7749 275.3625 13.14503750219456
ONEWEB-0201             
1 48241U 21031AH  25314.81622048  .00000151  00000+0  37331-3 0  9998
2 48241  87.8989 333.2350 0001735  84.3389 275.7938 13.14504619219692
ONEWEB-0207             
1 48242U 21031AJ  25314.79625686  .00000105  00000+0  24849-3 0  9996
2 48242  87.8991 333.1969 0001603  88.9192 271.2121 13.14504702219606
